{
    "links": {
        "self": "http://www.neowsapp.com/rest/v1/neo/3553286?api_key=iIulBulltgU6a56xZRHN4H3l9WmuAYTsLGpBGhQ2"
    },
    "id": "3553286",
    "neo_reference_id": "3553286",
    "name": "(2010 XF25)",
    "designation": "2010 XF25",
    "nasa_jpl_url": "http://ssd.jpl.nasa.gov/sbdb.cgi?sstr=3553286",
    "absolute_magnitude_h": 24.1,
    "estimated_diameter": {
        "kilometers": {
            "estimated_diameter_min": 0.040230458,
            "estimated_diameter_max": 0.0899580388
        },
        "meters": {
            "estimated_diameter_min": 40.2304579834,
            "estimated_diameter_max": 89.9580388169
        },
        "miles": {
            "estimated_diameter_min": 0.0249980399,
            "estimated_diameter_max": 0.0558973165
        },
        "feet": {
            "estimated_diameter_min": 131.9896957704,
            "estimated_diameter_max": 295.1379320721
        }
    },
    "is_potentially_hazardous_asteroid": false,
    "close_approach_data": [
        {
            "close_approach_date": "2010-11-29",
            "close_approach_date_full": "2010-Nov-29 16:56",
            "epoch_date_close_approach": 1291049760000,
            "relative_velocity": {
                "kilometers_per_second": "7.0019058026",
                "kilometers_per_hour": "25206.8608894797",
                "miles_per_hour": "15662.5630899103"
            },
            "miss_distance": {
                "astronomical": "0.1827178786",
                "lunar": "71.0772547754",
                "kilometers": "27334205.449478582",
                "miles": "16984687.6758731516"
            },
            "orbiting_body": "Earth"
        }
    ],
    "orbital_data": {
        "orbit_id": "5",
        "orbit_determination_date": "2017-04-06 08:55:16",
        "first_observation_date": "2010-12-08",
        "last_observation_date": "2010-12-09",
        "data_arc_in_days": 1,
        "observations_used": 17,
        "orbit_uncertainty": "9",
        "minimum_orbit_intersection": ".182485",
        "jupiter_tisserand_invariant": "4.868",
        "epoch_osculation": "2455539.5",
        "eccentricity": ".1285682977113078",
        "semi_major_axis": "1.337976942828343",
        "inclination": "13.35823435179153",
        "ascending_node_longitude": "252.8543145174327",
        "orbital_period": "565.2900885963825",
        "perihelion_distance": "1.165955524911923",
        "perihelion_argument": "166.198973891817",
        "aphelion_distance": "1.509998360744763",
        "perihelion_time": "2455520.871691230603",
        "mean_anomaly": "11.86327390532252",
        "mean_motion": ".6368411675037173",
        "equinox": "J2000",
        "orbit_class": {
            "orbit_class_type": "AMO",
            "orbit_class_description": "Near-Earth asteroid orbits similar to that of 1221 Amor",
            "orbit_class_range": "1.017 AU < q (perihelion) < 1.3 AU"
        }
    },
    "is_sentry_object": false
}